[{"OBJECT_NAME":"STARLINK-32646","OBJECT_ID":"2024-239G","EPOCH":"2025-12-04T04:13:34.559616","MEAN_MOTION":15.30233579,"ECCENTRICITY":0.00012124,"INCLINATION":53.1598,"RA_OF_ASC_NODE":264.5585,"ARG_OF_PERICENTER":123.2205,"MEAN_ANOMALY":236.8912,"EPHEMERIS_TYPE":0,"CLASSIFICATION_TYPE":"U","NORAD_CAT_ID":62307,"ELEMENT_SET_NO":999,"REV_AT_EPOCH":5494,"BSTAR":0.0016164374,"MEAN_MOTION_DOT":0.00047874,"MEAN_MOTION_DDOT":0},{"OBJECT_NAME":"STARLINK-32706","OBJECT_ID":"2024-239H","EPOCH":"2025-12-04T03:45:40.113792","MEAN_MOTION":15.30233799,"ECCENTRICITY":0.00011866,"INCLINATION":53.1621,"RA_OF_ASC_NODE":277.9286,"ARG_OF_PERICENTER":97.3743,"MEAN_ANOMALY":262.7392,"EPHEMERIS_TYPE":0,"CLASSIFICATION_TYPE":"U","NORAD_CAT_ID":62308,"ELEMENT_SET_NO":999,"REV_AT_EPOCH":5475,"BSTAR":0.0018249883,"MEAN_MOTION_DOT":0.00054143,"MEAN_MOTION_DDOT":0},{"OBJECT_NAME":"STARLINK-32678","OBJECT_ID":"2024-239J","EPOCH":"2025-12-04T01:55:37.416288","MEAN_MOTION":15.3022037,"ECCENTRICITY":0.00013277,"INCLINATION":53.1597,"RA_OF_ASC_NODE":265.3801,"ARG_OF_PERICENTER":123.929,"MEAN_ANOMALY":236.1838,"EPHEMERIS_TYPE":0,"CLASSIFICATION_TYPE":"U","NORAD_CAT_ID":62309,"ELEMENT_SET_NO":999,"REV_AT_EPOCH":5492,"BSTAR":0.0028140971,"MEAN_MOTION_DOT":0.00083985,"MEAN_MOTION_DDOT":0},{"OBJECT_NAME":"STARLINK-32696","OBJECT_ID":"2024-239K","EPOCH":"2025-12-04T05:15:09.775296","MEAN_MOTION":15.30236733,"ECCENTRICITY":0.0001347,"INCLINATION":53.1611,"RA_OF_ASC_NODE":277.6067,"ARG_OF_PERICENTER":95.0494,"MEAN_ANOMALY":265.066,"EPHEMERIS_TYPE":0,"CLASSIFICATION_TYPE":"U","NORAD_CAT_ID":62310,"ELEMENT_SET_NO":999,"REV_AT_EPOCH":5476,"BSTAR":0.002584,"MEAN_MOTION_DOT":0.00077056,"MEAN_MOTION_DDOT":0},{"OBJECT_NAME":"STARLINK-32700","OBJECT_ID":"2024-239L","EPOCH":"2025-12-04T04:59:08.831904","MEAN_MOTION":15.30192181,"ECCENTRICITY":0.0001252,"INCLINATION":53.1599,"RA_OF_ASC_NODE":264.7555,"ARG_OF_PERICENTER":44.1889,"MEAN_ANOMALY":315.9211,"EPHEMERIS_TYPE":0,"CLASSIFICATION_TYPE":"U","NORAD_CAT_ID":62311,"ELEMENT_SET_NO":999,"REV_AT_EPOCH":5493,"BSTAR":0.0014094,"MEAN_MOTION_DOT":0.00041608,"MEAN_MOTION_DDOT":0},{"OBJECT_NAME":"STARLINK-32698","OBJECT_ID":"2024-239M","EPOCH":"2025-12-04T13:14:32.623008","MEAN_MOTION":15.30231052,"ECCENTRICITY":0.0001979,"INCLINATION":53.1616,"RA_OF_ASC_NODE":276.1275,"ARG_OF_PERICENTER":70.6769,"MEAN_ANOMALY":289.4446,"EPHEMERIS_TYPE":0,"CLASSIFICATION_TYPE":"U","NORAD_CAT_ID":62312,"ELEMENT_SET_NO":999,"REV_AT_EPOCH":5481,"BSTAR":0.0012809,"MEAN_MOTION_DOT":0.00037808,"MEAN_MOTION_DDOT":0},{"OBJECT_NAME":"STARLINK-32634","OBJECT_ID":"2024-239N","EPOCH":"2025-12-04T02:44:05.267040","MEAN_MOTION":15.30196414,"ECCENTRICITY":0.00016724,"INCLINATION":53.1604,"RA_OF_ASC_NODE":264.881,"ARG_OF_PERICENTER":117.1839,"MEAN_ANOMALY":242.9333,"EPHEMERIS_TYPE":0,"CLASSIFICATION_TYPE":"U","NORAD_CAT_ID":62313,"ELEMENT_SET_NO":999,"REV_AT_EPOCH":5493,"BSTAR":-5.071807e-5,"MEAN_MOTION_DOT":-1.861e-5,"MEAN_MOTION_DDOT":0},{"OBJECT_NAME":"STARLINK-32651","OBJECT_ID":"2024-239P","EPOCH":"2025-12-04T03:00:04.839264","MEAN_MOTION":15.30233628,"ECCENTRICITY":0.00011022,"INCLINATION":53.1595,"RA_OF_ASC_NODE":277.7281,"ARG_OF_PERICENTER":75.1806,"MEAN_ANOMALY":284.9317,"EPHEMERIS_TYPE":0,"CLASSIFICATION_TYPE":"U","NORAD_CAT_ID":62314,"ELEMENT_SET_NO":999,"REV_AT_EPOCH":5475,"BSTAR":0.0030471199,"MEAN_MOTION_DOT":0.00091094,"MEAN_MOTION_DDOT":0},{"OBJECT_NAME":"STARLINK-32627","OBJECT_ID":"2024-239Q","EPOCH":"2025-12-04T05:21:12.934368","MEAN_MOTION":15.30268821,"ECCENTRICITY":0.000101,"INCLINATION":53.1626,"RA_OF_ASC_NODE":277.5829,"ARG_OF_PERICENTER":129.3924,"MEAN_ANOMALY":230.7166,"EPHEMERIS_TYPE":0,"CLASSIFICATION_TYPE":"U","NORAD_CAT_ID":62315,"ELEMENT_SET_NO":999,"REV_AT_EPOCH":5476,"BSTAR":0.0019558,"MEAN_MOTION_DOT":0.00058144,"MEAN_MOTION_DDOT":0},{"OBJECT_NAME":"STARLINK-32596","OBJECT_ID":"2024-239R","EPOCH":"2025-12-04T03:36:32.866560","MEAN_MOTION":15.30230105,"ECCENTRICITY":9.823e-5,"INCLINATION":53.1614,"RA_OF_ASC_NODE":277.8875,"ARG_OF_PERICENTER":95.0543,"MEAN_ANOMALY":265.057,"EPHEMERIS_TYPE":0,"CLASSIFICATION_TYPE":"U","NORAD_CAT_ID":62316,"ELEMENT_SET_NO":999,"REV_AT_EPOCH":5475,"BSTAR":0.0017483304,"MEAN_MOTION_DOT":0.00051831,"MEAN_MOTION_DDOT":0},{"OBJECT_NAME":"STARLINK-32519","OBJECT_ID":"2024-239S","EPOCH":"2025-12-04T11:53:11.957856","MEAN_MOTION":15.30257531,"ECCENTRICITY":0.0001255,"INCLINATION":53.1585,"RA_OF_ASC_NODE":262.991,"ARG_OF_PERICENTER":92.3721,"MEAN_ANOMALY":267.7424,"EPHEMERIS_TYPE":0,"CLASSIFICATION_TYPE":"U","NORAD_CAT_ID":62317,"ELEMENT_SET_NO":999,"REV_AT_EPOCH":5499,"BSTAR":0.0016198,"MEAN_MOTION_DOT":0.0004801,"MEAN_MOTION_DDOT":0},{"OBJECT_NAME":"STARLINK-32527","OBJECT_ID":"2024-239U","EPOCH":"2025-12-04T11:50:09.815424","MEAN_MOTION":15.30213664,"ECCENTRICITY":9.25e-5,"INCLINATION":53.1588,"RA_OF_ASC_NODE":262.9772,"ARG_OF_PERICENTER":82.2172,"MEAN_ANOMALY":277.8934,"EPHEMERIS_TYPE":0,"CLASSIFICATION_TYPE":"U","NORAD_CAT_ID":62319,"ELEMENT_SET_NO":999,"REV_AT_EPOCH":5499,"BSTAR":0.002562,"MEAN_MOTION_DOT":0.00076334,"MEAN_MOTION_DDOT":0},{"OBJECT_NAME":"STARLINK-32481","OBJECT_ID":"2024-239V","EPOCH":"2025-12-04T11:59:16.662624","MEAN_MOTION":15.30217763,"ECCENTRICITY":8.57e-5,"INCLINATION":53.1595,"RA_OF_ASC_NODE":263.0194,"ARG_OF_PERICENTER":141.7112,"MEAN_ANOMALY":218.395,"EPHEMERIS_TYPE":0,"CLASSIFICATION_TYPE":"U","NORAD_CAT_ID":62320,"ELEMENT_SET_NO":999,"REV_AT_EPOCH":5499,"BSTAR":0.0031936,"MEAN_MOTION_DOT":0.00095502,"MEAN_MOTION_DDOT":0},{"OBJECT_NAME":"STARLINK-32645","OBJECT_ID":"2024-239W","EPOCH":"2025-12-04T07:23:11.637312","MEAN_MOTION":15.30263329,"ECCENTRICITY":0.0001041,"INCLINATION":53.1594,"RA_OF_ASC_NODE":263.9578,"ARG_OF_PERICENTER":112.2998,"MEAN_ANOMALY":247.8113,"EPHEMERIS_TYPE":0,"CLASSIFICATION_TYPE":"U","NORAD_CAT_ID":62321,"ELEMENT_SET_NO":999,"REV_AT_EPOCH":5496,"BSTAR":0.0017866,"MEAN_MOTION_DOT":0.00053039,"MEAN_MOTION_DDOT":0},{"OBJECT_NAME":"STARLINK-32654","OBJECT_ID":"2024-239X","EPOCH":"2025-12-04T02:53:59.868384","MEAN_MOTION":15.30238379,"ECCENTRICITY":0.00012209,"INCLINATION":53.1594,"RA_OF_ASC_NODE":277.6989,"ARG_OF_PERICENTER":79.7097,"MEAN_ANOMALY":280.4041,"EPHEMERIS_TYPE":0,"CLASSIFICATION_TYPE":"U","NORAD_CAT_ID":62322,"ELEMENT_SET_NO":999,"REV_AT_EPOCH":5475,"BSTAR":0.0017929603,"MEAN_MOTION_DOT":0.00053187,"MEAN_MOTION_DDOT":0},{"OBJECT_NAME":"STARLINK-11444 [DTC]","OBJECT_ID":"2024-249A","EPOCH":"2025-12-04T11:36:18.527328","MEAN_MOTION":15.70952558,"ECCENTRICITY":0.0002168,"INCLINATION":43.0009,"RA_OF_ASC_NODE":21.8479,"ARG_OF_PERICENTER":273.5218,"MEAN_ANOMALY":86.5402,"EPHEMERIS_TYPE":0,"CLASSIFICATION_TYPE":"U","NORAD_CAT_ID":62409,"ELEMENT_SET_NO":999,"REV_AT_EPOCH":5450,"BSTAR":0.0020006,"MEAN_MOTION_DOT":0.00265894,"MEAN_MOTION_DDOT":0}]
