STARLINK-32646          
1 62307U 24239G   25338.17609444  .00047874  00000+0  16164-2 0  9993
2 62307  53.1598 264.5585 0001212 123.2205 236.8912 15.30233579 54948
STARLINK-32706          
1 62308U 24239H   25338.15671428  .00054143  00000+0  18250-2 0  9998
2 62308  53.1621 277.9286 0001186  97.3743 262.7392 15.30233799 54753
STARLINK-32678          
1 62309U 24239J   25338.08029417  .00083985  00000+0  28141-2 0  9992
2 62309  53.1597 265.3801 0001327 123.9290 236.1838 15.30220370 54920
STARLINK-32696          
1 62310U 24239K   25338.21886314  .00077056  00000+0  25840-2 0  9991
2 62310  53.1611 277.6067 0001346  95.0494 265.0660 15.30236733 54761
STARLINK-32700          
1 62311U 24239L   25338.20774112  .00041608  00000+0  14094-2 0  9996
2 62311  53.1599 264.7555 0001252  44.1889 315.9211 15.30192181 54939
STARLINK-32698          
1 62312U 24239M   25338.55176648  .00037808  00000+0  12809-2 0  9994
2 62312  53.1616 276.1275 0001979  70.6769 289.4446 15.30231052 54816
STARLINK-32634          
1 62313U 24239N   25338.11394985 -.00001861  00000+0 -50718-4 0  9998
2 62313  53.1604 264.8810 0001672 117.1839 242.9333 15.30196414 54932
STARLINK-32651          
1 62314U 24239P   25338.12505601  .00091094  00000+0  30471-2 0  9996
2 62314  53.1595 277.7281 0001102  75.1806 284.9317 15.30233628 54759
STARLINK-32627          
1 62315U 24239Q   25338.22306637  .00058144  00000+0  19558-2 0  9998
2 62315  53.1626 277.5829 0001010 129.3924 230.7166 15.30268821 54767
STARLINK-32596          
1 62316U 24239R   25338.15038040  .00051831  00000+0  17483-2 0  9992
2 62316  53.1614 277.8875 0000982  95.0543 265.0570 15.30230105 54755
STARLINK-32519          
1 62317U 24239S   25338.49527730  .00048010  00000+0  16198-2 0  9996
2 62317  53.1585 262.9910 0001254  92.3721 267.7424 15.30257531 54994
STARLINK-32527          
1 62319U 24239U   25338.49316916  .00076334  00000+0  25620-2 0  9990
2 62319  53.1588 262.9772 0000925  82.2172 277.8934 15.30213665 54995
STARLINK-32481          
1 62320U 24239V   25338.49949842  .00095502  00000+0  31936-2 0  9997
2 62320  53.1595 263.0194 0000856 141.7112 218.3950 15.30217763 54994
STARLINK-32645          
1 62321U 24239W   25338.30777358  .00053039  00000+0  17866-2 0  9994
2 62321  53.1594 263.9578 0001040 112.2998 247.8113 15.30263329 54964
STARLINK-32654          
1 62322U 24239X   25338.12083181  .00053187  00000+0  17930-2 0  9995
2 62322  53.1594 277.6989 0001220  79.7097 280.4041 15.30238379 54757
STARLINK-11444 [DTC]    
1 62409U 24249A   25338.48354777  .00265894  00000+0  20006-2 0  9991
2 62409  43.0009  21.8479 0002168 273.5218  86.5402 15.70952558 54501
